NORAD_CAT_ID,OBJECT_NAME,OBJECT_TYPE,EPOCH,MEAN_MOTION,ECCENTRICITY,INCLINATION,RA_OF_ASC_NODE,ARG_OF_PERICENTER,MEAN_ANOMALY,BSTAR,MEAN_MOTION_DOT,MEAN_MOTION_DDOT,TLE_LINE0,TLE_LINE1,TLE_LINE2,SEMIMAJOR_AXIS,PERIOD,APOGEE,PERIGEE,DECAYED
51106.0,STARLINK-3176,PAYLOAD,2024-04-26 06:52:31,15.08834915,0.0001417,53.2168,112.5459,95.7717,264.3437,5.8615e-05,6.45e-06,0.0,0 STARLINK-3176,1 51106U 22005C   24117.28647748  .00000645  00000-0  58615-4 0  9997,2 51106  53.2168 112.5459 0001417  95.7717 264.3437 15.08834915125850,6917.896,95.438,540.741,538.781,0.0
51106.0,STARLINK-3176,PAYLOAD,2024-04-26 16:24:50,15.08841823,0.0001422,53.2169,110.761,92.0742,268.0413,9.9152e-05,1.29e-05,0.0,0 STARLINK-3176,1 51106U 22005C   24117.68391231  .00001290  00000-0  99152-4 0  9992,2 51106  53.2169 110.7610 0001422  92.0742 268.0413 15.08841823125912,6917.875,95.437,540.724,538.756,0.0
51106.0,STARLINK-3176,PAYLOAD,2024-04-27 03:32:31,15.08844362,0.0001493,53.2175,108.68,95.83,264.2862,0.00013514,1.864e-05,0.0,0 STARLINK-3176,1 51106U 22005C   24118.14759056  .00001864  00000-0  13514-3 0  9991,2 51106  53.2175 108.6800 0001493  95.8300 264.2862 15.08844362127093,6917.867,95.437,540.765,538.699,0.0
51106.0,STARLINK-3176,PAYLOAD,2024-04-27 09:54:03,15.08851508,0.0001544,53.2165,107.49,93.6452,266.4716,0.00022522,3.299e-05,0.0,0 STARLINK-3176,1 51106U 22005C   24118.41254584  .00003299  00000-0  22522-3 0  9990,2 51106  53.2165 107.4900 0001544  93.6452 266.4716 15.08851508126025,6917.845,95.437,540.778,538.642,0.0
51106.0,STARLINK-3176,PAYLOAD,2024-04-27 16:15:36,15.08858108,0.0001553,53.2166,106.3003,74.8682,285.2482,0.00028745,4.292e-05,0.0,0 STARLINK-3176,1 51106U 22005C   24118.67750083  .00004292  00000-0  28745-3 0  9990,2 51106  53.2166 106.3003 0001553  74.8682 285.2482 15.08858108127173,6917.825,95.436,540.764,538.616,0.0
51106.0,STARLINK-3176,PAYLOAD,2024-04-28 03:23:19,15.08826398,0.0001573,53.2171,104.2199,82.9888,277.1283,-0.00011938,-2.187e-05,0.0,0 STARLINK-3176,1 51106U 22005C   24119.14119816 -.00002187  00000-0 -11938-3 0  9995,2 51106  53.2171 104.2199 0001573  82.9888 277.1283 15.08826398127245,6917.922,95.438,540.875,538.699,0.0
51106.0,STARLINK-3176,PAYLOAD,2024-04-28 04:58:42,15.08827422,0.0001655,53.2172,103.9228,83.1294,276.9886,-9.547e-05,-1.807e-05,0.0,0 STARLINK-3176,1 51106U 22005C   24119.20743855 -.00001807  00000-0 -95470-4 0  9990,2 51106  53.2172 103.9228 0001655  83.1294 276.9886 15.08827422126143,6917.919,95.438,540.929,538.639,0.0
51106.0,STARLINK-3176,PAYLOAD,2024-04-28 22:27:57,15.08835128,0.0001816,53.2186,100.6494,78.3764,281.7432,-9.8095e-06,-4.44e-06,0.0,0 STARLINK-3176,1 51106U 22005C   24119.93607835 -.00000444  00000-0 -98095-5 0  9990,2 51106  53.2186 100.6494 0001816  78.3764 281.7432 15.08835128126259,6917.895,95.438,541.017,538.504,0.0
51106.0,STARLINK-3176,PAYLOAD,2024-04-29 04:49:29,15.08839995,0.0001414,53.216,99.4625,82.1769,277.9384,0.00010064,1.314e-05,0.0,0 STARLINK-3176,1 51106U 22005C   24120.20103442  .00001314  00000-0  10064-3 0  9990,2 51106  53.2160  99.4625 0001414  82.1769 277.9384 15.08839995127401,6917.88,95.438,540.724,538.767,0.0
51106.0,STARLINK-3176,PAYLOAD,2024-04-29 08:00:15,15.08843022,0.0001435,53.2154,98.8667,80.0206,280.0948,0.00033053,4.977e-05,0.0,0 STARLINK-3176,1 51106U 22005C   24120.33351491  .00004977  00000-0  33053-3 0  9994,2 51106  53.2154  98.8667 0001435  80.0206 280.0948 15.08843022126315,6917.871,95.437,540.729,538.743,0.0
51106.0,STARLINK-3176,PAYLOAD,2024-04-29 22:18:43,15.08846961,0.0001552,53.2158,96.192,80.676,279.4408,0.00043315,6.614e-05,0.0,0 STARLINK-3176,1 51106U 22005C   24120.92967588  .00006614  00000-0  43315-3 0  9991,2 51106  53.2158  96.1920 0001552  80.6760 279.4408 15.08846961126401,6917.859,95.437,540.798,538.65,0.0
51106.0,STARLINK-3176,PAYLOAD,2024-04-30 04:40:16,15.08847067,0.0001543,53.2171,95.0008,89.1966,270.9203,0.00035558,5.377e-05,0.0,0 STARLINK-3176,1 51106U 22005C   24121.19463516  .00005377  00000-0  35558-3 0  9998,2 51106  53.2171  95.0008 0001543  89.1966 270.9203 15.08847067126444,6917.859,95.437,540.791,538.656,0.0
51106.0,STARLINK-3176,PAYLOAD,2024-04-30 15:47:58,15.08851044,0.0001546,53.2171,92.9194,88.6998,271.4171,0.00036242,5.486e-05,0.0,0 STARLINK-3176,1 51106U 22005C   24121.65831285  .00005486  00000-0  36242-3 0  9993,2 51106  53.2171  92.9194 0001546  88.6998 271.4171 15.08851044127629,6917.847,95.437,540.781,538.642,0.0
51106.0,STARLINK-3176,PAYLOAD,2024-04-30 22:09:30,15.08845398,0.0001632,53.2181,91.7302,92.549,267.5689,0.00014989,2.099e-05,0.0,0 STARLINK-3176,1 51106U 22005C   24121.92327388  .00002099  00000-0  14989-3 0  9998,2 51106  53.2181  91.7302 0001632  92.5490 267.5689 15.08845398126551,6917.864,95.437,540.858,538.6,0.0
51106.0,STARLINK-3176,PAYLOAD,2024-05-01 04:31:03,15.08845227,0.0001555,53.218,90.5397,94.0016,266.1154,9.896e-05,1.288e-05,0.0,0 STARLINK-3176,1 51106U 22005C   24122.18823433  .00001288  00000-0  98960-4 0  9990,2 51106  53.2180  90.5397 0001555  94.0016 266.1154 15.08845227127707,6917.864,95.437,540.805,538.654,0.0
51106.0,STARLINK-3176,PAYLOAD,2024-05-01 22:00:18,15.08841771,0.0001534,53.2179,87.2695,95.4611,264.6556,0.00012763,1.744e-05,0.0,0 STARLINK-3176,1 51106U 22005C   24122.91687500  .00001744  00000-0  12763-3 0  9997,2 51106  53.2179  87.2695 0001534  95.4611 264.6556 15.08841771126700,6917.875,95.437,540.801,538.679,0.0
51106.0,STARLINK-3176,PAYLOAD,2024-05-02 04:21:50,15.08837533,0.0001292,53.2169,86.0816,85.3525,274.7614,3.989e-05,3.47e-06,0.0,0 STARLINK-3176,1 51106U 22005C   24123.18183897  .00000347  00000-0  39890-4 0  9996,2 51106  53.2169  86.0816 0001292  85.3525 274.7614 15.08837533127859,6917.888,95.438,540.647,538.859,0.0
51106.0,STARLINK-3176,PAYLOAD,2024-05-02 13:54:09,15.08844757,0.0001228,53.2172,84.2977,82.9765,277.1367,4.6176e-05,4.47e-06,0.0,0 STARLINK-3176,1 51106U 22005C   24123.57927348  .00000447  00000-0  46176-4 0  9992,2 51106  53.2172  84.2977 0001228  82.9765 277.1367 15.08844757126801,6917.866,95.437,540.58,538.881,0.0
51106.0,STARLINK-3176,PAYLOAD,2024-05-03 13:45:00,15.08797627,0.0001477,53.2166,79.8369,97.0842,263.0318,-0.00025027,-4.264e-05,0.0,0 STARLINK-3176,1 51106U 22005C   24124.57291858 -.00004264  00000-0 -25027-3 0  9997,2 51106  53.2166  79.8369 0001477  97.0842 263.0318 15.08797627126957,6918.01,95.44,540.897,538.853,0.0
51106.0,STARLINK-3176,PAYLOAD,2024-05-04 05:38:50,15.08817144,0.0001515,53.218,76.8617,96.1574,263.9591,-2.8763e-06,-3.34e-06,0.0,0 STARLINK-3176,1 51106U 22005C   24125.23531186 -.00000334  00000-0 -28763-5 0  9998,2 51106  53.2180  76.8617 0001515  96.1574 263.9591 15.08817144128165,6917.95,95.439,540.863,538.767,0.0
51106.0,STARLINK-3176,PAYLOAD,2024-05-04 13:35:46,15.08826949,0.0001664,53.2177,75.3773,104.9155,255.2022,9.8193e-05,1.275e-05,0.0,0 STARLINK-3176,1 51106U 22005C   24125.56650698  .00001275  00000-0  98193-4 0  9990,2 51106  53.2177  75.3773 0001664 104.9155 255.2022 15.08826949128218,6917.92,95.438,540.936,538.634,0.0
51106.0,STARLINK-3176,PAYLOAD,2024-05-05 03:54:13,15.08850206,0.0001549,53.2168,72.6993,106.486,253.6302,0.00048092,7.376e-05,0.0,0 STARLINK-3176,1 51106U 22005C   24126.16266060  .00007376  00000-0  48092-3 0  9993,2 51106  53.2168  72.6993 0001549 106.4860 253.6302 15.08850206128300,6917.849,95.437,540.786,538.643,0.0
51106.0,STARLINK-3176,PAYLOAD,2024-05-05 05:29:37,15.08854607,0.0001595,53.2167,72.4019,108.7139,251.4026,0.00078535,0.00012238,0.0,0 STARLINK-3176,1 51106U 22005C   24126.22890332  .00012238  00000-0  78535-3 0  9993,2 51106  53.2167  72.4019 0001595 108.7139 251.4026 15.08854607127207,6917.836,95.437,540.804,538.597,0.0
51106.0,STARLINK-3176,PAYLOAD,2024-05-06 03:44:59,15.08922624,0.0001954,53.2166,68.2385,123.0097,237.1083,0.0025466,0.00040567,0.0,0 STARLINK-3176,1 51106U 22005C   24127.15624226  .00040567  00000-0  25466-2 0  9993,2 51106  53.2166  68.2385 0001954 123.0097 237.1083 15.08922624128454,6917.628,95.432,540.845,538.141,0.0
51106.0,STARLINK-3176,PAYLOAD,2024-05-06 19:38:48,15.08851508,0.0002178,53.2175,65.2624,90.5399,269.5842,-0.0012642,-0.00020359,0.0,0 STARLINK-3176,1 51106U 22005C   24127.81862232 -.00020359  00000-0 -12642-2 0  9998,2 51106  53.2175  65.2624 0002178  90.5399 269.5842 15.08851508128554,6917.845,95.437,541.217,538.204,0.0
51106.0,STARLINK-3176,PAYLOAD,2024-05-07 13:08:03,15.08833688,0.0001794,53.2174,61.9931,89.2009,270.9189,0.00047646,7.302e-05,0.0,0 STARLINK-3176,1 51106U 22005C   24128.54726800  .00007302  00000-0  47646-3 0  9993,2 51106  53.2174  61.9931 0001794  89.2009 270.9189 15.08833688127551,6917.9,95.438,541.006,538.524,0.0
51106.0,STARLINK-3176,PAYLOAD,2024-05-07 19:29:37,15.08836382,0.000297,53.2176,60.8038,92.2973,267.836,0.0006531,0.0001012,0.0,0 STARLINK-3176,1 51106U 22005C   24128.81223626  .00010120  00000-0  65310-3 0  9991,2 51106  53.2176  60.8038 0002970  92.2973 267.8360 15.08836382127594,6917.891,95.438,541.811,537.702,0.0
51106.0,STARLINK-3176,PAYLOAD,2024-05-08 01:51:09,15.08827977,0.0002281,53.2183,59.6128,102.1951,257.9297,-1.959e-05,-6e-06,0.0,0 STARLINK-3176,1 51106U 22005C   24129.07719746 -.00000600  00000-0 -19590-4 0  9997,2 51106  53.2183  59.6128 0002281 102.1951 257.9297 15.08827977128747,6917.917,95.438,541.36,538.204,0.0
51106.0,STARLINK-3176,PAYLOAD,2024-05-08 22:31:11,15.08837463,0.0001943,53.2171,55.7492,93.3778,266.7436,0.00062187,9.622e-05,0.0,0 STARLINK-3176,1 51106U 22005C   24129.93832619  .00009622  00000-0  62187-3 0  9997,2 51106  53.2171  55.7492 0001943  93.3778 266.7436 15.08837463127762,6917.888,95.438,541.097,538.409,0.0
51106.0,STARLINK-3176,PAYLOAD,2024-05-09 04:52:43,15.08854621,0.0001678,53.2185,54.5601,93.8558,266.2627,0.0011767,0.00018496,0.0,0 STARLINK-3176,1 51106U 22005C   24130.20328452  .00018496  00000-0  11767-2 0  9990,2 51106  53.2185  54.5601 0001678  93.8558 266.2627 15.08854621128912,6917.836,95.437,540.862,538.54,0.0
